******** Week 930 almanac for PRN-42 ********
ID:                         42
Health:                     000
Eccentricity:               1.1038780212E-003
Time of Applicability(s):  167936.0000
Orbital Inclination(rad):   0.0303860022
Rate of Right Ascen(r/s):  -6.5717023100E-009
SQRT(A)  (m 1/2):           5282.582520
Right Ascen at Week(rad):   1.0072415210E+000
Argument of Perigee(rad):  -1.205553479
Mean Anom(rad):            -2.4910346220E+000
Af0(s):                    -5.1021580000E-004
Af1(s/s):                   7.2759600000E-012
week:                        930

******** Week 930 almanac for PRN-43 ********
ID:                         43
Health:                     000
Eccentricity:               3.5667419434E-004
Time of Applicability(s):  167936.0000
Orbital Inclination(rad):   0.0118523984
Rate of Right Ascen(r/s):  -7.0517223000E-009
SQRT(A)  (m 1/2):           5282.568359
Right Ascen at Week(rad):  -1.1120368270E+000
Argument of Perigee(rad):   0.433526340
Mean Anom(rad):            -2.7946676930E+000
Af0(s):                     4.5776370000E-005
Af1(s/s):                   0.0000000000E+000
week:                        930

******** Week 930 almanac for PRN-44 ********
ID:                         44
Health:                     000
Eccentricity:               5.7029724121E-004
Time of Applicability(s):  167936.0000
Orbital Inclination(rad):   0.0123077990
Rate of Right Ascen(r/s):  -7.0517223000E-009
SQRT(A)  (m 1/2):           5282.573242
Right Ascen at Week(rad):  -1.1117023920E+000
Argument of Perigee(rad):   0.475194366
Mean Anom(rad):            -1.3099102370E+000
Af0(s):                     2.7751920000E-004
Af1(s/s):                   1.0913900000E-011
week:                        930

******** Week 930 almanac for PRN-45 ********
ID:                         45
Health:                     000
Eccentricity:               5.5551528931E-004
Time of Applicability(s):  167936.0000
Orbital Inclination(rad):   0.0086705867
Rate of Right Ascen(r/s):  -6.7774251600E-009
SQRT(A)  (m 1/2):           5282.562988
Right Ascen at Week(rad):   3.1076492090E+000
Argument of Perigee(rad):   0.169564049
Mean Anom(rad):             1.9323701290E+000
Af0(s):                    -4.1008000000E-005
Af1(s/s):                  -3.6379800000E-012
week:                        930

******** Week 930 almanac for PRN-46 ********
ID:                         46
Health:                     000
Eccentricity:               8.7833404541E-004
Time of Applicability(s):  167936.0000
Orbital Inclination(rad):   0.0087005473
Rate of Right Ascen(r/s):  -6.7659961200E-009
SQRT(A)  (m 1/2):           5282.566406
Right Ascen at Week(rad):   3.1081806350E+000
Argument of Perigee(rad):   0.184236111
Mean Anom(rad):            -2.8288560660E+000
Af0(s):                    -9.6321110000E-005
Af1(s/s):                  -3.6379800000E-012
week:                        930

******** Week 930 almanac for PRN-05 ********
ID:                         05
Health:                     000
Eccentricity:               7.3289871216E-004
Time of Applicability(s):  172032.0000
Orbital Inclination(rad):   0.0319559357
Rate of Right Ascen(r/s):   1.1429047500E-009
SQRT(A)  (m 1/2):           6493.456543
Right Ascen at Week(rad):   5.5924535300E-001
Argument of Perigee(rad):  -2.987007762
Mean Anom(rad):            -2.8528630900E+000
Af0(s):                     1.5068050000E-004
Af1(s/s):                  -6.1845600000E-011
week:                        930

******** Week 930 almanac for PRN-56 ********
ID:                         56
Health:                     000
Eccentricity:               4.6024322510E-003
Time of Applicability(s):   94208.0000
Orbital Inclination(rad):  -0.0281509443
Rate of Right Ascen(r/s):  -2.7429714000E-009
SQRT(A)  (m 1/2):           6493.225586
Right Ascen at Week(rad):  -2.6700501050E+000
Argument of Perigee(rad):  -2.960955930
Mean Anom(rad):             1.6172280830E+000
Af0(s):                     4.1580200000E-004
Af1(s/s):                   3.6379800000E-012
week:                        930

******** Week 930 almanac for PRN-57 ********
ID:                         57
Health:                     000
Eccentricity:               4.6539306641E-004
Time of Applicability(s):   94208.0000
Orbital Inclination(rad):   0.0337775379
Rate of Right Ascen(r/s):  -6.7545670700E-009
SQRT(A)  (m 1/2):           5282.583984
Right Ascen at Week(rad):  -1.1289896370E+000
Argument of Perigee(rad):  -1.011672688
Mean Anom(rad):            -1.3079508200E-001
Af0(s):                     4.1580200000E-004
Af1(s/s):                   3.6379800000E-012
week:                        930

******** Week 930 almanac for PRN-58 ********
ID:                         58
Health:                     000
Eccentricity:               6.9904327393E-004
Time of Applicability(s):   98304.0000
Orbital Inclination(rad):   0.0324652653
Rate of Right Ascen(r/s):  -7.0745804000E-009
SQRT(A)  (m 1/2):           5282.567871
Right Ascen at Week(rad):   2.0974157510E+000
Argument of Perigee(rad):   0.915884277
Mean Anom(rad):             7.9508179200E-001
Af0(s):                    -9.7656250000E-004
Af1(s/s):                  -1.8917500000E-010
week:                        930

******** Week 930 almanac for PRN-59 ********
ID:                         59
Health:                     000
Eccentricity:               1.6307830811E-004
Time of Applicability(s):  167936.0000
Orbital Inclination(rad):   0.0284745184
Rate of Right Ascen(r/s):  -9.1432380000E-010
SQRT(A)  (m 1/2):           6493.421875
Right Ascen at Week(rad):   1.4623941440E+000
Argument of Perigee(rad):   0.290814445
Mean Anom(rad):             3.7129488200E-001
Af0(s):                     0.0000000000E+000
Af1(s/s):                   0.0000000000E+000
week:                        930

******** Week 930 almanac for PRN-06 ********
ID:                         06
Health:                     000
Eccentricity:               3.7522315979E-003
Time of Applicability(s):  172032.0000
Orbital Inclination(rad):   0.0039428100
Rate of Right Ascen(r/s):  -1.9772252200E-009
SQRT(A)  (m 1/2):           6492.864258
Right Ascen at Week(rad):   2.3494687180E+000
Argument of Perigee(rad):  -2.970652291
Mean Anom(rad):             2.4498972720E+000
Af0(s):                     7.7247620000E-005
Af1(s/s):                   1.8189900000E-011
week:                        930

******** Week 930 almanac for PRN-60 ********
ID:                         60
Health:                     000
Eccentricity:               3.4427642822E-004
Time of Applicability(s):  167936.0000
Orbital Inclination(rad):   0.0363421620
Rate of Right Ascen(r/s):   3.7830147200E-009
SQRT(A)  (m 1/2):           6493.495605
Right Ascen at Week(rad):  -3.1846916700E-001
Argument of Perigee(rad):  -2.671499822
Mean Anom(rad):            -2.2168217000E+000
Af0(s):                     0.0000000000E+000
Af1(s/s):                   0.0000000000E+000
week:                        930

******** Week 930 almanac for PRN-61 ********
ID:                         61
Health:                     000
Eccentricity:               9.7274780273E-004
Time of Applicability(s):  167936.0000
Orbital Inclination(rad):   0.0101506385
Rate of Right Ascen(r/s):   2.3658128300E-009
SQRT(A)  (m 1/2):           6493.471191
Right Ascen at Week(rad):  -7.2649569800E-001
Argument of Perigee(rad):  -0.837574857
Mean Anom(rad):            -3.1090457460E+000
Af0(s):                     0.0000000000E+000
Af1(s/s):                   0.0000000000E+000
week:                        930

******** Week 930 almanac for PRN-62 ********
ID:                         62
Health:                     000
Eccentricity:               5.1212310791E-004
Time of Applicability(s):  167936.0000
Orbital Inclination(rad):   0.0473017357
Rate of Right Ascen(r/s):   1.0857595100E-009
SQRT(A)  (m 1/2):           6493.436523
Right Ascen at Week(rad):  -1.8973151480E+000
Argument of Perigee(rad):  -2.229635832
Mean Anom(rad):             3.1590529200E-001
Af0(s):                     0.0000000000E+000
Af1(s/s):                   0.0000000000E+000
week:                        930

******** Week 930 almanac for PRN-07 ********
ID:                         07
Health:                     000
Eccentricity:               3.0379295349E-003
Time of Applicability(s):  172032.0000
Orbital Inclination(rad):  -0.0821278933
Rate of Right Ascen(r/s):  -2.0343704500E-009
SQRT(A)  (m 1/2):           6493.571777
Right Ascen at Week(rad):  -1.9805425940E+000
Argument of Perigee(rad):  -2.584986077
Mean Anom(rad):             1.4623151200E-001
Af0(s):                    -2.4127960000E-004
Af1(s/s):                  -5.8207700000E-011
week:                        930

******** Week 930 almanac for PRN-08 ********
ID:                         08
Health:                     000
Eccentricity:               2.8152465820E-003
Time of Applicability(s):  172032.0000
Orbital Inclination(rad):   0.1232158084
Rate of Right Ascen(r/s):  -1.6457828400E-009
SQRT(A)  (m 1/2):           6493.571289
Right Ascen at Week(rad):   2.1436070700E-001
Argument of Perigee(rad):   3.074988826
Mean Anom(rad):            -1.4311471500E+000
Af0(s):                     2.6798250000E-004
Af1(s/s):                  -2.1827900000E-011
week:                        930

******** Week 930 almanac for PRN-09 ********
ID:                         09
Health:                     000
Eccentricity:               1.1134624481E-002
Time of Applicability(s):  172032.0000
Orbital Inclination(rad):   0.0087904290
Rate of Right Ascen(r/s):  -1.9543671200E-009
SQRT(A)  (m 1/2):           6493.545410
Right Ascen at Week(rad):   2.3940455410E+000
Argument of Perigee(rad):  -2.321612886
Mean Anom(rad):             1.5523166520E+000
Af0(s):                    -2.6702880000E-005
Af1(s/s):                  -4.7293700000E-011
week:                        930

